[{"OBJECT_NAME":"JILIN-1 08","OBJECT_ID":"2018-008F","EPOCH":"2026-03-09T22:37:53.184288","MEAN_MOTION":15.32205976,"ECCENTRICITY":0.00081321,"INCLINATION":97.1902,"RA_OF_ASC_NODE":90.9961,"ARG_OF_PERICENTER":76.0646,"MEAN_ANOMALY":284.15,"EPHEMERIS_TYPE":0,"CLASSIFICATION_TYPE":"U","NORAD_CAT_ID":43160,"ELEMENT_SET_NO":999,"REV_AT_EPOCH":44974,"BSTAR":0.00036689195,"MEAN_MOTION_DOT":0.00011349,"MEAN_MOTION_DDOT":0},{"OBJECT_NAME":"STARLINK-35583","OBJECT_ID":"2025-270Z","EPOCH":"2026-03-09T00:20:17.852064","MEAN_MOTION":15.27592294,"ECCENTRICITY":0.00030319,"INCLINATION":43.004,"RA_OF_ASC_NODE":59.8937,"ARG_OF_PERICENTER":288.7918,"MEAN_ANOMALY":71.2605,"EPHEMERIS_TYPE":0,"CLASSIFICATION_TYPE":"U","NORAD_CAT_ID":66611,"ELEMENT_SET_NO":999,"REV_AT_EPOCH":1771,"BSTAR":0.0012682922,"MEAN_MOTION_DOT":0.00034819,"MEAN_MOTION_DDOT":0}]
